CCSDS_OMM_VERS = 2.0
CREATION_DATE  = 
ORIGINATOR     = 

OBJECT_NAME    = COSMOS 1933
OBJECT_ID      = 1988-020A
CENTER_NAME    = EARTH
REF_FRAME      = TEME
TIME_SYSTEM    = UTC
MEAN_ELEMENT_THEORY = SGP/SGP4

EPOCH          = 2026-01-21T06:08:26.392128
MEAN_MOTION    = 15.17521860
ECCENTRICITY   = .000517
INCLINATION    = 82.5146
RA_OF_ASC_NODE = 297.8291
ARG_OF_PERICENTER = 28.0013
MEAN_ANOMALY   = 332.1498

EPHEMERIS_TYPE = 0
CLASSIFICATION_TYPE = U
NORAD_CAT_ID   = 18958
ELEMENT_SET_NO = 999
REV_AT_EPOCH   = 4303
BSTAR          = .49639E-3
MEAN_MOTION_DOT = .9988E-4
MEAN_MOTION_DDOT = 0

CCSDS_OMM_VERS = 2.0
CREATION_DATE  = 
ORIGINATOR     = 

OBJECT_NAME    = SL-3 R/B
OBJECT_ID      = 1988-032B
CENTER_NAME    = EARTH
REF_FRAME      = TEME
TIME_SYSTEM    = UTC
MEAN_ELEMENT_THEORY = SGP/SGP4

EPOCH          = 2026-01-21T12:27:02.871936
MEAN_MOTION    = 15.19234839
ECCENTRICITY   = .002775
INCLINATION    = 97.5125
RA_OF_ASC_NODE = 4.9858
ARG_OF_PERICENTER = 41.6487
MEAN_ANOMALY   = 318.6853

EPHEMERIS_TYPE = 0
CLASSIFICATION_TYPE = U
NORAD_CAT_ID   = 19046
ELEMENT_SET_NO = 999
REV_AT_EPOCH   = 4494
BSTAR          = .41772E-3
MEAN_MOTION_DOT = .8823E-4
MEAN_MOTION_DDOT = 0

CCSDS_OMM_VERS = 2.0
CREATION_DATE  = 
ORIGINATOR     = 

OBJECT_NAME    = SL-16 R/B
OBJECT_ID      = 1988-039B
CENTER_NAME    = EARTH
REF_FRAME      = TEME
TIME_SYSTEM    = UTC
MEAN_ELEMENT_THEORY = SGP/SGP4

EPOCH          = 2026-01-21T11:43:14.371392
MEAN_MOTION    = 14.19608321
ECCENTRICITY   = .0020053
INCLINATION    = 71.0140
RA_OF_ASC_NODE = 168.3537
ARG_OF_PERICENTER = 48.4017
MEAN_ANOMALY   = 311.8822

EPHEMERIS_TYPE = 0
CLASSIFICATION_TYPE = U
NORAD_CAT_ID   = 19120
ELEMENT_SET_NO = 999
REV_AT_EPOCH   = 95168
BSTAR          = .65015E-4
MEAN_MOTION_DOT = .9E-6
MEAN_MOTION_DDOT = 0

CCSDS_OMM_VERS = 2.0
CREATION_DATE  = 
ORIGINATOR     = 

OBJECT_NAME    = COSMOS 1953
OBJECT_ID      = 1988-050A
CENTER_NAME    = EARTH
REF_FRAME      = TEME
TIME_SYSTEM    = UTC
MEAN_ELEMENT_THEORY = SGP/SGP4

EPOCH          = 2026-01-21T12:59:34.881216
MEAN_MOTION    = 15.27505261
ECCENTRICITY   = .0010458
INCLINATION    = 82.5066
RA_OF_ASC_NODE = 205.6257
ARG_OF_PERICENTER = 293.5550
MEAN_ANOMALY   = 66.4590

EPHEMERIS_TYPE = 0
CLASSIFICATION_TYPE = U
NORAD_CAT_ID   = 19210
ELEMENT_SET_NO = 999
REV_AT_EPOCH   = 3058
BSTAR          = .4783E-3
MEAN_MOTION_DOT = .12925E-3
MEAN_MOTION_DDOT = 0

CCSDS_OMM_VERS = 2.0
CREATION_DATE  = 
ORIGINATOR     = 

OBJECT_NAME    = SL-8 R/B
OBJECT_ID      = 1988-053B
CENTER_NAME    = EARTH
REF_FRAME      = TEME
TIME_SYSTEM    = UTC
MEAN_ELEMENT_THEORY = SGP/SGP4

EPOCH          = 2026-01-21T12:25:12.228096
MEAN_MOTION    = 14.38883959
ECCENTRICITY   = .0019608
INCLINATION    = 74.0456
RA_OF_ASC_NODE = 199.4070
ARG_OF_PERICENTER = 29.0485
MEAN_ANOMALY   = 28.5771

EPHEMERIS_TYPE = 0
CLASSIFICATION_TYPE = U
NORAD_CAT_ID   = 19257
ELEMENT_SET_NO = 999
REV_AT_EPOCH   = 96981
BSTAR          = .1231E-3
MEAN_MOTION_DOT = .354E-5
MEAN_MOTION_DDOT = 0

CCSDS_OMM_VERS = 2.0
CREATION_DATE  = 
ORIGINATOR     = 

OBJECT_NAME    = COSMOS 1975
OBJECT_ID      = 1988-093A
CENTER_NAME    = EARTH
REF_FRAME      = TEME
TIME_SYSTEM    = UTC
MEAN_ELEMENT_THEORY = SGP/SGP4

EPOCH          = 2026-01-21T10:21:57.207168
MEAN_MOTION    = 15.27136295
ECCENTRICITY   = .0011175
INCLINATION    = 82.5216
RA_OF_ASC_NODE = 165.0742
ARG_OF_PERICENTER = 342.4365
MEAN_ANOMALY   = 17.6486

EPHEMERIS_TYPE = 0
CLASSIFICATION_TYPE = U
NORAD_CAT_ID   = 19573
ELEMENT_SET_NO = 999
REV_AT_EPOCH   = 1219
BSTAR          = .49492E-3
MEAN_MOTION_DOT = .13228E-3
MEAN_MOTION_DDOT = 0

CCSDS_OMM_VERS = 2.0
CREATION_DATE  = 
ORIGINATOR     = 

OBJECT_NAME    = SL-14 R/B
OBJECT_ID      = 1988-093B
CENTER_NAME    = EARTH
REF_FRAME      = TEME
TIME_SYSTEM    = UTC
MEAN_ELEMENT_THEORY = SGP/SGP4

EPOCH          = 2026-01-21T10:30:56.261952
MEAN_MOTION    = 14.85600278
ECCENTRICITY   = .0020437
INCLINATION    = 82.5300
RA_OF_ASC_NODE = 86.4120
ARG_OF_PERICENTER = 190.3881
MEAN_ANOMALY   = 180.0908

EPHEMERIS_TYPE = 0
CLASSIFICATION_TYPE = U
NORAD_CAT_ID   = 19574
ELEMENT_SET_NO = 999
REV_AT_EPOCH   = 99402
BSTAR          = .9422E-4
MEAN_MOTION_DOT = .842E-5
MEAN_MOTION_DDOT = 0

CCSDS_OMM_VERS = 2.0
CREATION_DATE  = 
ORIGINATOR     = 

OBJECT_NAME    = SL-16 R/B
OBJECT_ID      = 1988-102B
CENTER_NAME    = EARTH
REF_FRAME      = TEME
TIME_SYSTEM    = UTC
MEAN_ELEMENT_THEORY = SGP/SGP4

EPOCH          = 2026-01-20T22:38:56.073984
MEAN_MOTION    = 14.16147359
ECCENTRICITY   = .00119254
INCLINATION    = 70.9982
RA_OF_ASC_NODE = 251.9566
ARG_OF_PERICENTER = 82.2903
MEAN_ANOMALY   = 277.9574

EPHEMERIS_TYPE = 0
CLASSIFICATION_TYPE = U
NORAD_CAT_ID   = 19650
ELEMENT_SET_NO = 999
REV_AT_EPOCH   = 92013
BSTAR          = .10859441E-3
MEAN_MOTION_DOT = .167E-5
MEAN_MOTION_DDOT = 0

CCSDS_OMM_VERS = 2.0
CREATION_DATE  = 
ORIGINATOR     = 

OBJECT_NAME    = INTERCOSMOS 24
OBJECT_ID      = 1989-080A
CENTER_NAME    = EARTH
REF_FRAME      = TEME
TIME_SYSTEM    = UTC
MEAN_ELEMENT_THEORY = SGP/SGP4

EPOCH          = 2026-01-20T19:52:18.927840
MEAN_MOTION    = 12.59493612
ECCENTRICITY   = .11888736
INCLINATION    = 82.6079
RA_OF_ASC_NODE = 135.5443
ARG_OF_PERICENTER = 43.8958
MEAN_ANOMALY   = 325.0614

EPHEMERIS_TYPE = 0
CLASSIFICATION_TYPE = U
NORAD_CAT_ID   = 20261
ELEMENT_SET_NO = 999
REV_AT_EPOCH   = 66077
BSTAR          = .21648794E-3
MEAN_MOTION_DOT = .76E-5
MEAN_MOTION_DDOT = 0

CCSDS_OMM_VERS = 2.0
CREATION_DATE  = 
ORIGINATOR     = 

OBJECT_NAME    = SL-14 R/B
OBJECT_ID      = 1989-080C
CENTER_NAME    = EARTH
REF_FRAME      = TEME
TIME_SYSTEM    = UTC
MEAN_ELEMENT_THEORY = SGP/SGP4

EPOCH          = 2026-01-20T22:43:30.623808
MEAN_MOTION    = 12.50442435
ECCENTRICITY   = .1229618
INCLINATION    = 82.5917
RA_OF_ASC_NODE = 203.8419
ARG_OF_PERICENTER = 293.9585
MEAN_ANOMALY   = 53.7587

EPHEMERIS_TYPE = 0
CLASSIFICATION_TYPE = U
NORAD_CAT_ID   = 20262
ELEMENT_SET_NO = 999
REV_AT_EPOCH   = 65418
BSTAR          = .1203442E-3
MEAN_MOTION_DOT = .397E-5
MEAN_MOTION_DDOT = 0

CCSDS_OMM_VERS = 2.0
CREATION_DATE  = 
ORIGINATOR     = 

OBJECT_NAME    = DELTA 1 R/B
OBJECT_ID      = 1989-089B
CENTER_NAME    = EARTH
REF_FRAME      = TEME
TIME_SYSTEM    = UTC
MEAN_ELEMENT_THEORY = SGP/SGP4

EPOCH          = 2026-01-20T21:19:38.034624
MEAN_MOTION    = 14.50613739
ECCENTRICITY   = .00675338
INCLINATION    = 97.0734
RA_OF_ASC_NODE = 235.9189
ARG_OF_PERICENTER = 273.9245
MEAN_ANOMALY   = 85.4234

EPHEMERIS_TYPE = 0
CLASSIFICATION_TYPE = U
NORAD_CAT_ID   = 20323
ELEMENT_SET_NO = 999
REV_AT_EPOCH   = 88880
BSTAR          = .20873168E-3
MEAN_MOTION_DOT = .807E-5
MEAN_MOTION_DDOT = 0

CCSDS_OMM_VERS = 2.0
CREATION_DATE  = 
ORIGINATOR     = 

OBJECT_NAME    = ARIANE 40 R/B
OBJECT_ID      = 1990-005H
CENTER_NAME    = EARTH
REF_FRAME      = TEME
TIME_SYSTEM    = UTC
MEAN_ELEMENT_THEORY = SGP/SGP4

EPOCH          = 2026-01-20T19:04:18.862464
MEAN_MOTION    = 14.39831863
ECCENTRICITY   = .00098365
INCLINATION    = 98.3181
RA_OF_ASC_NODE = 82.8585
ARG_OF_PERICENTER = 355.7079
MEAN_ANOMALY   = 4.4024

EPHEMERIS_TYPE = 0
CLASSIFICATION_TYPE = U
NORAD_CAT_ID   = 20443
ELEMENT_SET_NO = 999
REV_AT_EPOCH   = 88591
BSTAR          = .20011307E-3
MEAN_MOTION_DOT = .586E-5
MEAN_MOTION_DDOT = 0

