COSMOS 1933             
1 18958U 88020A   26021.25586102  .00009988  00000+0  49639-3 0  9996
2 18958  82.5146 297.8291 0005170  28.0013 332.1498 15.17521860 43030
SL-3 R/B                
1 19046U 88032B   26021.51878324  .00008823  00000+0  41772-3 0  9994
2 19046  97.5125   4.9858 0027750  41.6487 318.6853 15.19234839 44946
SL-16 R/B               
1 19120U 88039B   26021.48836078  .00000090  00000+0  65015-4 0  9995
2 19120  71.0140 168.3537 0020053  48.4017 311.8822 14.19608321951684
COSMOS 1953             
1 19210U 88050A   26021.54137594  .00012925  00000+0  47830-3 0  9996
2 19210  82.5066 205.6257 0010458 293.5550  66.4590 15.27505261 30586
SL-8 R/B                
1 19257U 88053B   26021.51750264  .00000354  00000+0  12310-3 0  9990
2 19257  74.0456 199.4070 0019608  29.0485  28.5771 14.38883959969815
COSMOS 1975             
1 19573U 88093A   26021.43191212  .00013228  00000+0  49492-3 0  9993
2 19573  82.5216 165.0742 0011175 342.4365  17.6486 15.27136295 12194
SL-14 R/B               
1 19574U 88093B   26021.43815118  .00000842  00000+0  94220-4 0  9990
2 19574  82.5300  86.4120 0020437 190.3881 180.0908 14.85600278994024
SL-16 R/B               
1 19650U 88102B   26020.94370456  .00000167  00000+0  10859-3 0  9997
2 19650  70.9982 251.9566 0011925  82.2903 277.9574 14.16147359920131
INTERCOSMOS 24          
1 20261U 89080A   26020.82799685  .00000760  00000+0  21649-3 0  9997
2 20261  82.6079 135.5443 1188873  43.8958 325.0614 12.59493612660772
SL-14 R/B               
1 20262U 89080C   26020.94688222  .00000397  00000+0  12034-3 0  9999
2 20262  82.5917 203.8419 1229618 293.9585  53.7587 12.50442435654182
DELTA 1 R/B             
1 20323U 89089B   26020.88863466  .00000807  00000+0  20873-3 0  9990
2 20323  97.0734 235.9189 0067533 273.9245  85.4234 14.50613739888802
ARIANE 40 R/B           
1 20443U 90005H   26020.79466276  .00000586  00000+0  20011-3 0  9999
2 20443  98.3181  82.8585 0009836 355.7079   4.4024 14.39831863885914
